OBJECT_NAME,OBJECT_ID,EPOCH,MEAN_MOTION,ECCENTRICITY,INCLINATION,RA_OF_ASC_NODE,ARG_OF_PERICENTER,MEAN_ANOMALY,EPHEMERIS_TYPE,CLASSIFICATION_TYPE,NORAD_CAT_ID,ELEMENT_SET_NO,REV_AT_EPOCH,BSTAR,MEAN_MOTION_DOT,MEAN_MOTION_DDOT
PERSEUS-M1,2014-033AF,2026-05-18T07:55:43.069440,14.95523176,.00127239,97.9635,81.9777,42.8372,317.3837,0,U,40039,999,64617,.13186014E-3,.1402E-4,0
POLYITAN-1,2014-033AJ,2026-05-18T19:17:58.762176,15.32154281,.00056968,98.0962,162.3101,240.0236,120.0439,0,U,40042,999,64909,.38316913E-3,.11817E-3,0
TIGRISAT,2014-033AK,2026-05-18T09:39:30.507552,14.85021879,.00497258,97.7798,289.1062,170.8027,189.4111,0,U,40043,999,64120,.1639485E-3,.1375E-4,0
AEROCUBE 6A,2014-033AM,2026-05-18T21:34:03.118080,14.97756867,.00401463,97.7224,306.1714,112.7205,247.8269,0,U,40045,999,64223,.3020797E-3,.3543E-4,0
AEROCUBE 6B,2014-033AN,2026-05-18T11:05:22.227648,14.99173041,.0038503,97.7175,305.4682,107.4236,253.1202,0,U,40046,999,64230,.32628312E-3,.3972E-4,0
CANX-4,2014-034C,2026-05-18T05:25:59.200896,14.81203571,.00140768,98.3160,12.4349,105.7344,254.5421,0,U,40055,999,64009,.79923508E-4,.566E-5,0
CANX-5,2014-034D,2026-05-18T02:09:40.601664,14.81220629,.00140709,98.3163,12.3353,106.3261,253.9499,0,U,40056,999,63088,.8217185E-4,.583E-5,0
UKUBE-1,2014-037F,2026-05-18T22:36:58.591584,15.13034237,.00003981,98.4241,139.1552,132.8085,227.3177,0,U,40074,999,64413,.3257758E-3,.5679E-4,0
BRITE-PL2 (HEWELIUSZ),2014-049B,2026-05-18T07:28:58.372608,14.94468289,.00135758,97.9065,250.0897,203.4228,156.6375,0,U,40119,999,63698,.12593857E-3,.1301E-4,0
AEROCUBE 5C,2015-058B,2026-05-18T20:48:32.720832,14.91273609,.01299238,64.7682,353.7926,74.7977,286.7459,0,U,40965,999,36128,.19788129E-3,.2142E-4,0
AEROCUBE 7,2015-058C,2026-05-18T19:30:25.719552,14.95480192,.01196888,64.7625,336.8066,73.4969,287.9256,0,U,40966,999,36156,.24125975E-3,.2909E-4,0
FOX-1A (AO-85),2015-058D,2026-05-18T15:16:53.001984,14.90780838,.01292011,64.7765,10.8054,68.1875,293.2924,0,U,40967,999,10916,.19406215E-3,.2064E-4,0
SINOD-D 1,2015-058E,2026-05-18T20:40:00.579648,14.95659384,.01177202,64.7760,350.7343,64.8575,296.4696,0,U,40968,999,11227,.25259115E-3,.3055E-4,0
SNAP-3 ALICE,2015-058G,2026-05-18T21:08:11.959872,15.54033874,.0033312,64.7516,204.7284,26.9654,333.3210,0,U,40970,999,11232,.85192539E-3,.57008E-3,0
LMRST-SAT,2015-058H,2026-05-18T05:58:39.314496,14.90404641,.01309521,64.7771,8.2915,70.3605,291.1585,0,U,40971,999,10909,.19788052E-3,.2096E-4,0
SNAP-3 EDDIE,2015-058J,2026-05-18T13:43:08.023296,15.55164174,.0033654,64.7433,196.7243,30.9859,329.3260,0,U,40972,999,11441,.68228485E-3,.47515E-3,0
PROPCUBE 3,2015-058K,2026-05-18T19:49:57.946368,14.94042196,.01230876,64.7689,344.2560,71.6205,289.8247,0,U,40973,999,11041,.22813731E-3,.2654E-4,0
BISONSAT,2015-058L,2026-05-18T17:47:16.246464,15.15551834,.00786343,64.7603,268.7929,59.7512,301.1366,0,U,40974,999,11115,.34335464E-3,.6867E-4,0
SNAP-3 JIMI,2015-058M,2026-05-18T21:30:08.633664,15.01978122,.01050681,64.7649,312.4251,67.5350,293.6852,0,U,40975,999,10982,.2817591E-3,.3981E-4,0
PROPCUBE 1 (FLORA),2015-058N,2026-05-18T02:37:23.093184,14.89036393,.01297448,64.7761,28.4429,72.6996,288.8262,0,U,40976,999,11178,.20930607E-3,.2137E-4,0
SINOD-D 3,2015-058P,2026-05-18T22:04:46.622784,14.93773336,.01182408,64.7735,7.1960,69.8344,291.5442,0,U,40977,999,11038,.25180928E-3,.2892E-4,0
HORYU-4,2016-012D,2026-05-18T17:54:52.000416,15.79598825,.00046261,30.9885,292.2958,76.1068,284.0104,0,U,41340,999,56613,.71944564E-3,.139486E-2,0
RAVAN,2016-067B,2026-05-18T22:09:40.511520,15.51783452,.00072006,97.9933,25.1809,104.1115,256.0937,0,U,41849,999,52315,.51973562E-3,.31027E-3,0
CELTEE 1,2016-067C,2026-05-18T20:05:46.383360,15.19364275,.00015134,98.0706,3.4044,56.9062,303.2316,0,U,41850,999,52142,.17675541E-3,.366E-4,0
OPTICUBE 04,2016-067D,2026-05-18T20:20:42.827424,15.09522411,.00148444,98.0727,349.5990,212.6570,147.3741,0,U,41851,999,52074,.92605744E-4,.1416E-4,0
AEROCUBE 8D,2016-067E,2026-05-18T08:24:02.200608,15.23941579,.00022815,98.0716,6.2566,217.4113,142.6964,0,U,41852,999,52152,.19073296E-3,.453E-4,0
AEROCUBE 8C,2016-067F,2026-05-18T21:43:10.586496,15.24187046,.00060364,98.0586,4.1194,148.2977,211.8623,0,U,41853,999,52160,.21381251E-3,.5128E-4,0
CORVUS BC2,2017-042X,2026-05-18T21:31:55.899264,15.06088173,.0012378,97.4040,301.3956,205.2843,154.7781,0,U,42846,999,48265,.11344629E-3,.16E-4,0
CORVUS BC1,2017-042Y,2026-05-18T21:28:57.774432,15.06258703,.00119071,97.4070,302.1884,180.9014,179.2195,0,U,42847,999,48268,.10785812E-3,.1525E-4,0
MAKERSAT 0,2017-073D,2026-05-18T21:48:14.559840,15.30778554,.01105869,97.4663,21.2218,18.3053,342.2119,0,U,43016,999,46198,.46599266E-3,.16695E-3,0
